NORAD_CAT_ID,OBJECT_NAME,OBJECT_TYPE,EPOCH,MEAN_MOTION,ECCENTRICITY,INCLINATION,RA_OF_ASC_NODE,ARG_OF_PERICENTER,MEAN_ANOMALY,BSTAR,MEAN_MOTION_DOT,MEAN_MOTION_DDOT,TLE_LINE0,TLE_LINE1,TLE_LINE2,SEMIMAJOR_AXIS,PERIOD,APOGEE,PERIGEE,DECAYED
54076.0,STARLINK-5201,PAYLOAD,2024-06-29 12:57:19,15.07205584,0.0001182,53.2153,239.1467,99.6162,260.4963,9.1206e-05,1.105e-05,0.0,0 STARLINK-5201,1 54076U 22136AB  24181.53980475  .00001105  00000-0  91206-4 0  9992,2 54076  53.2153 239.1467 0001182  99.6162 260.4963 15.07205584 94000,6922.881,95.541,545.564,543.927,0.0
54076.0,STARLINK-5201,PAYLOAD,2024-06-29 20:54:46,15.07202364,0.0001133,53.2152,237.6617,91.2912,268.8209,8.7833e-05,1.054e-05,0.0,0 STARLINK-5201,1 54076U 22136AB  24181.87136725  .00001054  00000-0  87833-4 0  9994,2 54076  53.2152 237.6617 0001133  91.2912 268.8209 15.07202364 93575,6922.891,95.541,545.54,543.971,0.0
54076.0,STARLINK-5201,PAYLOAD,2024-06-30 03:16:43,15.07205077,0.0001257,53.2154,236.4745,90.2075,269.9061,-1.1172e-05,-4.53e-06,0.0,0 STARLINK-5201,1 54076U 22136AB  24182.13661780 -.00000453  00000-0 -11172-4 0  9995,2 54076  53.2154 236.4745 0001257  90.2075 269.9061 15.07205077 94092,6922.882,95.541,545.617,543.877,0.0
54076.0,STARLINK-5201,PAYLOAD,2024-06-30 11:14:11,15.07169275,0.0001542,53.2162,234.989,93.7025,266.4143,0.00044432,6.48e-05,0.0,0 STARLINK-5201,1 54076U 22136AB  24182.46818584  .00006480  00000-0  44432-3 0  9995,2 54076  53.2162 234.9890 0001542  93.7025 266.4143 15.07169275 94143,6922.992,95.543,545.924,543.789,0.0
54076.0,STARLINK-5201,PAYLOAD,2024-07-01 12:41:59,15.07209916,0.0001348,53.2159,230.2365,91.3621,268.7525,9.0278e-05,1.091e-05,0.0,0 STARLINK-5201,1 54076U 22136AB  24183.52916337  .00001091  00000-0  90278-4 0  9991,2 54076  53.2159 230.2365 0001348  91.3621 268.7525 15.07209916 94309,6922.867,95.541,545.666,543.799,0.0
54076.0,STARLINK-5201,PAYLOAD,2024-07-01 20:39:26,15.07206386,0.0001189,53.2151,228.7514,96.7692,263.3435,3.79e-05,2.94e-06,0.0,0 STARLINK-5201,1 54076U 22136AB  24183.86072604  .00000294  00000-0  37900-4 0  9995,2 54076  53.2151 228.7514 0001189  96.7692 263.3435 15.07206386 93879,6922.878,95.541,545.566,543.92,0.0
54076.0,STARLINK-5201,PAYLOAD,2024-07-02 03:01:24,15.0719016,0.0001293,53.2155,227.5633,95.6562,264.4576,0.00022892,3.202e-05,0.0,0 STARLINK-5201,1 54076U 22136AB  24184.12597951  .00003202  00000-0  22892-3 0  9997,2 54076  53.2155 227.5633 0001293  95.6562 264.4576 15.07190160 94390,6922.928,95.542,545.688,543.898,0.0
54076.0,STARLINK-5201,PAYLOAD,2024-07-02 12:34:20,15.07204416,0.000124,53.2151,225.7807,92.2702,267.8431,5.6799e-05,5.81e-06,0.0,0 STARLINK-5201,1 54076U 22136AB  24184.52384719  .00000581  00000-0  56799-4 0  9998,2 54076  53.2151 225.7807 0001240  92.2702 267.8431 15.07204416 94454,6922.884,95.541,545.608,543.891,0.0
54076.0,STARLINK-5201,PAYLOAD,2024-07-03 09:15:41,15.07208332,0.0001245,53.2165,221.9214,87.8643,272.2491,6.7022e-05,7.37e-06,0.0,0 STARLINK-5201,1 54076U 22136AB  24185.38589839  .00000737  00000-0  67022-4 0  9997,2 54076  53.2165 221.9214 0001245  87.8643 272.2491 15.07208332 94107,6922.872,95.541,545.599,543.875,0.0
54076.0,STARLINK-5201,PAYLOAD,2024-07-04 02:46:04,15.07203666,0.0001312,53.216,218.6553,84.9627,275.1514,5.8475e-05,6.07e-06,0.0,0 STARLINK-5201,1 54076U 22136AB  24186.11533190  .00000607  00000-0  58475-4 0  9996,2 54076  53.2160 218.6553 0001312  84.9627 275.1514 15.07203666 94693,6922.887,95.541,545.66,543.843,0.0
54076.0,STARLINK-5201,PAYLOAD,2024-07-04 09:08:02,15.07204376,0.0001313,53.2162,217.4676,84.7147,275.3994,5.8881e-05,6.13e-06,0.0,0 STARLINK-5201,1 54076U 22136AB  24186.38057895  .00000613  00000-0  58881-4 0  9996,2 54076  53.2162 217.4676 0001313  84.7147 275.3994 15.07204376 94259,6922.884,95.541,545.658,543.84,0.0
54076.0,STARLINK-5201,PAYLOAD,2024-07-04 18:40:58,15.07204452,0.0001291,53.2161,215.6858,82.6077,277.5061,1.9753e-05,1.7e-07,0.0,0 STARLINK-5201,1 54076U 22136AB  24186.77845112  .00000017  00000-0  19753-4 0  9999,2 54076  53.2161 215.6858 0001291  82.6077 277.5061 15.07204452 94315,6922.884,95.541,545.643,543.855,0.0
54076.0,STARLINK-5201,PAYLOAD,2024-07-05 09:00:22,15.07205498,0.0001317,53.2166,213.0142,84.5869,275.5272,1.0708e-05,-1.2e-06,0.0,0 STARLINK-5201,1 54076U 22136AB  24187.37525824 -.00000120  00000-0  10708-4 0  9998,2 54076  53.2166 213.0142 0001317  84.5869 275.5272 15.07205498 94882,6922.881,95.541,545.658,543.834,0.0
54076.0,STARLINK-5201,PAYLOAD,2024-07-05 18:33:18,15.07204519,0.0001305,53.2165,211.2323,83.1126,277.0014,1.8195e-05,-6e-08,0.0,0 STARLINK-5201,1 54076U 22136AB  24187.77313001 -.00000006  00000-0  18195-4 0  9995,2 54076  53.2165 211.2323 0001305  83.1126 277.0014 15.07204519 94468,6922.884,95.541,545.652,543.845,0.0
54076.0,STARLINK-5201,PAYLOAD,2024-07-06 10:28:12,15.07200463,0.0001337,53.2166,208.2637,87.6839,272.4305,-4.6137e-07,-2.9e-06,0.0,0 STARLINK-5201,1 54076U 22136AB  24188.43625340 -.00000290  00000-0 -46137-6 0  9996,2 54076  53.2166 208.2637 0001337  87.6839 272.4305 15.07200463 95049,6922.896,95.541,545.687,543.836,0.0
54076.0,STARLINK-5201,PAYLOAD,2024-07-06 18:25:38,15.07201204,0.0001348,53.2169,206.7789,85.7753,274.3392,1.897e-05,5e-08,0.0,0 STARLINK-5201,1 54076U 22136AB  24188.76781208  .00000005  00000-0  18970-4 0  9992,2 54076  53.2169 206.7789 0001348  85.7753 274.3392 15.07201204 94612,6922.894,95.541,545.692,543.826,0.0
54076.0,STARLINK-5201,PAYLOAD,2024-07-07 10:20:32,15.07204782,0.0001324,53.2165,203.8093,85.7481,274.3662,3.7418e-05,2.86e-06,0.0,0 STARLINK-5201,1 54076U 22136AB  24189.43092905  .00000286  00000-0  37418-4 0  9995,2 54076  53.2165 203.8093 0001324  85.7481 274.3662 15.07204782 94711,6922.883,95.541,545.665,543.832,0.0
54076.0,STARLINK-5201,PAYLOAD,2024-07-08 07:01:53,15.07206544,0.0001286,53.2162,199.9487,85.8585,274.2554,8.2699e-05,9.76e-06,0.0,0 STARLINK-5201,1 54076U 22136AB  24190.29298068  .00000976  00000-0  82699-4 0  9996,2 54076  53.2162 199.9487 0001286  85.8585 274.2554 15.07206544 94844,6922.878,95.541,545.633,543.852,0.0
54076.0,STARLINK-5201,PAYLOAD,2024-07-08 18:10:18,15.07206425,0.0001292,53.2161,197.8703,85.0422,275.0717,6.2128e-05,6.63e-06,0.0,0 STARLINK-5201,1 54076U 22136AB  24190.75716423  .00000663  00000-0  62128-4 0  9995,2 54076  53.2161 197.8703 0001292  85.0422 275.0717 15.07206425 95399,6922.878,95.541,545.638,543.849,0.0
54076.0,STARLINK-5201,PAYLOAD,2024-07-09 10:05:12,15.0720715,0.0001336,53.2164,194.9008,88.4542,271.6603,3.1896e-05,2.02e-06,0.0,0 STARLINK-5201,1 54076U 22136AB  24191.42028303  .00000202  00000-0  31896-4 0  9990,2 54076  53.2164 194.9008 0001336  88.4542 271.6603 15.07207150 95018,6922.876,95.541,545.666,543.816,0.0
54076.0,STARLINK-5201,PAYLOAD,2024-07-10 05:11:05,15.07202229,0.0001373,53.216,191.3367,90.9384,269.1764,-3.7543e-05,-8.55e-06,0.0,0 STARLINK-5201,1 54076U 22136AB  24192.21603155 -.00000855  00000-0 -37543-4 0  9993,2 54076  53.2160 191.3367 0001373  90.9384 269.1764 15.07202229 95614,6922.891,95.541,545.706,543.805,0.0
54076.0,STARLINK-5201,PAYLOAD,2024-07-10 06:46:34,15.07202297,0.000137,53.216,191.0397,90.7794,269.3355,-3.6735e-05,-8.42e-06,0.0,0 STARLINK-5201,1 54076U 22136AB  24192.28234341 -.00000842  00000-0 -36735-4 0  9995,2 54076  53.2160 191.0397 0001370  90.7794 269.3355 15.07202297 95145,6922.891,95.541,545.704,543.807,0.0
54076.0,STARLINK-5201,PAYLOAD,2024-07-11 06:38:54,15.07206339,0.0001341,53.2162,186.5854,90.1439,269.9706,5.0377e-05,4.84e-06,0.0,0 STARLINK-5201,1 54076U 22136AB  24193.27701744  .00000484  00000-0  50377-4 0  9999,2 54076  53.2162 186.5854 0001341  90.1439 269.9706 15.07206339 95295,6922.878,95.541,545.672,543.815,0.0
54076.0,STARLINK-5201,PAYLOAD,2024-07-12 04:55:45,15.07201179,0.0001343,53.2164,182.4292,90.6781,269.4364,5.3289e-05,5.28e-06,0.0,0 STARLINK-5201,1 54076U 22136AB  24194.20538903  .00000528  00000-0  53289-4 0  9992,2 54076  53.2164 182.4292 0001343  90.6781 269.4364 15.07201179 95916,6922.894,95.541,545.689,543.829,0.0
54076.0,STARLINK-5201,PAYLOAD,2024-07-12 09:42:13,15.07203757,0.0001343,53.2165,181.5387,90.8016,269.313,7.3482e-05,8.35e-06,0.0,0 STARLINK-5201,1 54076U 22136AB  24194.40432285  .00000835  00000-0  73482-4 0  9998,2 54076  53.2165 181.5387 0001343  90.8016 269.3130 15.07203757 95469,6922.886,95.541,545.681,543.822,0.0
54076.0,STARLINK-5201,PAYLOAD,2024-07-12 22:26:08,15.07202089,0.0001409,53.2169,179.1637,92.6289,267.4864,-1.0402e-05,-4.42e-06,0.0,0 STARLINK-5201,1 54076U 22136AB  24194.93482293 -.00000442  00000-0 -10402-4 0  9999,2 54076  53.2169 179.1637 0001409  92.6289 267.4864 15.07202089 95548,6922.891,95.541,545.732,543.781,0.0
54076.0,STARLINK-5201,PAYLOAD,2024-07-13 04:48:06,15.07204487,0.0001649,53.2163,177.9752,87.9249,272.1931,9.8224e-06,-1.34e-06,0.0,0 STARLINK-5201,1 54076U 22136AB  24195.20006968 -.00000134  00000-0  98224-5 0  9997,2 54076  53.2163 177.9752 0001649  87.9249 272.1931 15.07204487 95581,6922.884,95.541,545.891,543.607,0.0
54076.0,STARLINK-5201,PAYLOAD,2024-07-13 15:56:17,15.07349713,0.0001226,53.217,175.8965,127.1372,232.9731,0.0011983,0.00018075,0.0,0 STARLINK-5201,1 54076U 22136AB  24195.66409370  .00018075  00000-0  11983-2 0  9997,2 54076  53.2170 175.8965 0001226 127.1372 232.9731 15.07349713 96133,6922.439,95.532,545.153,543.456,0.0
54076.0,STARLINK-5201,PAYLOAD,2024-07-14 04:39:35,15.0772304,0.0001131,53.217,173.5184,87.9664,272.1457,0.0040589,0.00062934,0.0,0 STARLINK-5201,1 54076U 22136AB  24196.19416568  .00062934  00000-0  40589-2 0  9990,2 54076  53.2170 173.5184 0001131  87.9664 272.1457 15.07723040 96212,6921.297,95.508,543.944,542.379,0.0
54076.0,STARLINK-5201,PAYLOAD,2024-07-14 11:01:13,15.07880523,0.0001517,53.2169,172.3293,90.0057,270.1108,0.0050853,0.00079446,0.0,0 STARLINK-5201,1 54076U 22136AB  24196.45918784  .00079446  00000-0  50853-2 0  9997,2 54076  53.2169 172.3293 0001517  90.0057 270.1108 15.07880523 96252,6920.815,95.498,543.73,541.63,0.0
